{
    "type": "FeatureCollection",
    "features": [
        {
            "type": "Feature",
            "properties": {
                "name": "log_20260111_121734"
            },
            "geometry": {
                "type": "LineString",
                "coordinates": [
                    [
                        135.4554830424034,
                        34.70140346569389,
                        1
                    ],
                    [
                        135.4550793564086,
                        34.70165758506272,
                        1
                    ],
                    [
                        135.4550971888801,
                        34.70206716474031,
                        1
                    ],
                    [
                        135.4551361226929,
                        34.70248920870986,
                        1
                    ],
                    [
                        135.4551618485268,
                        34.70290891695254,
                        1
                    ],
                    [
                        135.4552303787238,
                        34.70341468726636,
                        1
                    ],
                    [
                        135.4551022250681,
                        34.70377393667553,
                        1
                    ],
                    [
                        135.4550765899555,
                        34.70414956563597,
                        1
                    ],
                    [
                        135.4550721871091,
                        34.70468977652554,
                        1
                    ],
                    [
                        135.4547457217054,
                        34.70502002050328,
                        1
                    ],
                    [
                        135.4545473141976,
                        34.70540108891431,
                        1
                    ],
                    [
                        135.454654452535,
                        34.70579995759679,
                        1
                    ],
                    [
                        135.4541891396208,
                        34.70597258560298,
                        1
                    ],
                    [
                        135.4539475911977,
                        34.70641768268501,
                        1
                    ],
                    [
                        135.4542434307935,
                        34.70676374809602,
                        1
                    ],
                    [
                        135.4544117116495,
                        34.70717478650617,
                        1
                    ],
                    [
                        135.454081609625,
                        34.70719045373144,
                        1
                    ],
                    [
                        135.4538802431769,
                        34.70681452388588,
                        1
                    ],
                    [
                        135.4535878206002,
                        34.70648016432067,
                        1
                    ],
                    [
                        135.4533636691502,
                        34.70605905970579,
                        1
                    ],
                    [
                        135.4529514218716,
                        34.70584455039779,
                        1
                    ],
                    [
                        135.452419317974,
                        34.70575012948541,
                        1
                    ],
                    [
                        135.4519322541607,
                        34.70578695951743,
                        1
                    ],
                    [
                        135.4514189763414,
                        34.70575378830742,
                        1
                    ],
                    [
                        135.45097570902,
                        34.7055898476584,
                        1
                    ],
                    [
                        135.4505098731183,
                        34.70555309382591,
                        1
                    ],
                    [
                        135.4500455028683,
                        34.70554546693646,
                        1
                    ],
                    [
                        135.4503580124795,
                        34.70569159119071,
                        1
                    ],
                    [
                        135.450694707932,
                        34.70593682127551,
                        1
                    ],
                    [
                        135.450437586632,
                        34.70571922788533,
                        1
                    ],
                    [
                        135.4500279871106,
                        34.70546131309885,
                        1
                    ],
                    [
                        135.4499797273971,
                        34.70506018544807,
                        1
                    ],
                    [
                        135.4500165325497,
                        34.70464489487728,
                        1
                    ],
                    [
                        135.4496750296387,
                        34.70422545656336,
                        1
                    ],
                    [
                        135.4495089084329,
                        34.70375612332146,
                        1
                    ],
                    [
                        135.4493479491255,
                        34.70335560621299,
                        1
                    ],
                    [
                        135.4491323297086,
                        34.70299300394441,
                        1
                    ],
                    [
                        135.4488454837087,
                        34.70260439088656,
                        1
                    ],
                    [
                        135.4485890892202,
                        34.70230114393077,
                        1
                    ],
                    [
                        135.4483132042448,
                        34.70196780296897,
                        1
                    ],
                    [
                        135.4480442897811,
                        34.70162695532628,
                        1
                    ],
                    [
                        135.447774544994,
                        34.70126542326022,
                        1
                    ],
                    [
                        135.4475208880033,
                        34.70156001207636,
                        1
                    ],
                    [
                        135.4472617451553,
                        34.70191933893175,
                        1
                    ],
                    [
                        135.4471953270914,
                        34.70239340499406,
                        1
                    ],
                    [
                        135.4476470124616,
                        34.70256130462194,
                        1
                    ],
                    [
                        135.4481197814171,
                        34.70279359109189,
                        1
                    ],
                    [
                        135.4486207765043,
                        34.70276183523623,
                        1
                    ],
                    [
                        135.4488309408431,
                        34.70241571641658,
                        1
                    ],
                    [
                        135.4490589434482,
                        34.7020840350193,
                        1
                    ],
                    [
                        135.4488300658986,
                        34.70252147259412,
                        1
                    ],
                    [
                        135.4490999953044,
                        34.70287094055097,
                        1
                    ],
                    [
                        135.4490089420456,
                        34.70282976611223,
                        1
                    ],
                    [
                        135.4488265498044,
                        34.70245587302605,
                        1
                    ],
                    [
                        135.4490257907099,
                        34.70210914847105,
                        1
                    ],
                    [
                        135.4492318217326,
                        34.70175339247037,
                        1
                    ],
                    [
                        135.4497502089068,
                        34.70160553401474,
                        1
                    ],
                    [
                        135.450275262743,
                        34.70165279961222,
                        1
                    ],
                    [
                        135.4506997424608,
                        34.7018600478475,
                        1
                    ],
                    [
                        135.4511847192746,
                        34.70205164954145,
                        1
                    ],
                    [
                        135.451604999567,
                        34.70219583170403,
                        1
                    ],
                    [
                        135.4519415955685,
                        34.70222250092402,
                        1
                    ],
                    [
                        135.452306221565,
                        34.70220876440013,
                        1
                    ],
                    [
                        135.4528225076206,
                        34.70208688524832,
                        1
                    ],
                    [
                        135.4530620144801,
                        34.70164127209704,
                        1
                    ],
                    [
                        135.4529145671067,
                        34.70125816776427,
                        1
                    ],
                    [
                        135.4532942212765,
                        34.70146352882634,
                        1
                    ],
                    [
                        135.4538091152026,
                        34.70135209467814,
                        1
                    ],
                    [
                        135.4543134221675,
                        34.70127663610263,
                        1
                    ],
                    [
                        135.4545861099552,
                        34.70152261936999,
                        1
                    ],
                    [
                        135.4550605527899,
                        34.70160411078576,
                        1
                    ],
                    [
                        135.4553983130383,
                        34.70153107616473,
                        1
                    ],
                    [
                        135.4555624753074,
                        34.70146970821258,
                        1
                    ]
                ]
            }
        },
        {
            "type": "Feature",
            "properties": {
                "name": "1.姫島小学校",
                "cmt": "",
                "desc": ""
            },
            "geometry": {
                "type": "Point",
                "coordinates": [
                    135.4555624753074,
                    34.70146970821258
                ]
            }
        },
        {
            "type": "Feature",
            "properties": {
                "name": "2.笠城歯科",
                "cmt": "",
                "desc": ""
            },
            "geometry": {
                "type": "Point",
                "coordinates": [
                    135.4550721871091,
                    34.70468977652554
                ]
            }
        },
        {
            "type": "Feature",
            "properties": {
                "name": "3.阪神高速",
                "cmt": "",
                "desc": ""
            },
            "geometry": {
                "type": "Point",
                "coordinates": [
                    135.4539475911977,
                    34.70641768268501
                ]
            }
        },
        {
            "type": "Feature",
            "properties": {
                "name": "4.大野川緑陰道路",
                "cmt": "",
                "desc": ""
            },
            "geometry": {
                "type": "Point",
                "coordinates": [
                    135.452419317974,
                    34.70575012948541
                ]
            }
        },
        {
            "type": "Feature",
            "properties": {
                "name": "5.西淀公園",
                "cmt": "",
                "desc": ""
            },
            "geometry": {
                "type": "Point",
                "coordinates": [
                    135.4503580124795,
                    34.70569159119071
                ]
            }
        },
        {
            "type": "Feature",
            "properties": {
                "name": "6.特別養護老人ホーム　姫島みずほ苑",
                "cmt": "",
                "desc": ""
            },
            "geometry": {
                "type": "Point",
                "coordinates": [
                    135.4493479491255,
                    34.70335560621299
                ]
            }
        },
        {
            "type": "Feature",
            "properties": {
                "name": "7.西淀中学校",
                "cmt": "",
                "desc": ""
            },
            "geometry": {
                "type": "Point",
                "coordinates": [
                    135.4471953270914,
                    34.70239340499406
                ]
            }
        },
        {
            "type": "Feature",
            "properties": {
                "name": "8.せいりょう姫島",
                "cmt": "",
                "desc": ""
            },
            "geometry": {
                "type": "Point",
                "coordinates": [
                    135.4529145671067,
                    34.70125816776427
                ]
            }
        }
    ]
}